1 37673U 11024A   14041.10359927  .00000777  00000-0  13075-3 0  9990
2 37673 098.0125 050.1267 0001462 104.8726 297.2962 14.72300539143532
